CCSDS_OMM_VERS = 2.0
CREATION_DATE  = 
ORIGINATOR     = 

OBJECT_NAME    = XRISM
OBJECT_ID      = 2023-137A
CENTER_NAME    = EARTH
REF_FRAME      = TEME
TIME_SYSTEM    = UTC
MEAN_ELEMENT_THEORY = SGP/SGP4

EPOCH          = 2026-03-30T20:05:01.567680
MEAN_MOTION    = 15.11749390
ECCENTRICITY   = .00079331
INCLINATION    = 31.0017
RA_OF_ASC_NODE = 146.8569
ARG_OF_PERICENTER = 251.8412
MEAN_ANOMALY   = 108.1362

EPHEMERIS_TYPE = 0
CLASSIFICATION_TYPE = U
NORAD_CAT_ID   = 57800
ELEMENT_SET_NO = 999
REV_AT_EPOCH   = 14099
BSTAR          = .43674076E-3
MEAN_MOTION_DOT = .7737E-4
MEAN_MOTION_DDOT = 0

CCSDS_OMM_VERS = 2.0
CREATION_DATE  = 
ORIGINATOR     = 

OBJECT_NAME    = ACS3
OBJECT_ID      = 2024-077B
CENTER_NAME    = EARTH
REF_FRAME      = TEME
TIME_SYSTEM    = UTC
MEAN_ELEMENT_THEORY = SGP/SGP4

EPOCH          = 2026-03-30T19:17:24.338688
MEAN_MOTION    = 13.90585211
ECCENTRICITY   = .00729203
INCLINATION    = 97.1961
RA_OF_ASC_NODE = 26.1699
ARG_OF_PERICENTER = 28.5612
MEAN_ANOMALY   = 331.9518

EPHEMERIS_TYPE = 0
CLASSIFICATION_TYPE = U
NORAD_CAT_ID   = 59588
ELEMENT_SET_NO = 999
REV_AT_EPOCH   = 9713
BSTAR          = .18405637E-1
MEAN_MOTION_DOT = .23459E-3
MEAN_MOTION_DDOT = 0

CCSDS_OMM_VERS = 2.0
CREATION_DATE  = 
ORIGINATOR     = 

OBJECT_NAME    = SZ-21 MODULE
OBJECT_ID      = 2025-246C
CENTER_NAME    = EARTH
REF_FRAME      = TEME
TIME_SYSTEM    = UTC
MEAN_ELEMENT_THEORY = SGP/SGP4

EPOCH          = 2026-03-30T07:26:18.451392
MEAN_MOTION    = 15.70166693
ECCENTRICITY   = .00020203
INCLINATION    = 41.4738
RA_OF_ASC_NODE = 76.2734
ARG_OF_PERICENTER = 214.1142
MEAN_ANOMALY   = 145.9571

EPHEMERIS_TYPE = 0
CLASSIFICATION_TYPE = U
NORAD_CAT_ID   = 66515
ELEMENT_SET_NO = 999
REV_AT_EPOCH   = 2131
BSTAR          = .38893019E-3
MEAN_MOTION_DOT = .48483E-3
MEAN_MOTION_DDOT = 0

